     2.11           N: GPS NAV DATA                         RINEX VERSION / TYPE
teqc  2018Dec12     gpsops              20220123 01:03:58UTCPGM / RUN BY / DATE
Linux 2.6.32-573.12.1.x86_64|x86_64|gcc -static|Linux 64|=+ COMMENT
CHPI                                    MARKER NAME         COMMENT
41609M003                               MARKER NUMBER       COMMENT
4164613.9484 -4162456.9866 -2445028.7316                    COMMENT
                                                            COMMENT
This data is provided as a public service by NASA/JPL.      COMMENT
No warranty is expressed or implied regarding suitability   COMMENT
for use.  For further information, contact:                 COMMENT
Dave Stowers, NASA/JPL m/s 238-600                          COMMENT
4800 Oak Grove Drive, Pasadena CA 91109 USA                 COMMENT
                                                            END OF HEADER
12 22  1 22 10  0  0.0-1.595402136445D-04-5.684341886081D-12 0.000000000000D+00
    4.600000000000D+01-1.856250000000D+01 4.469829043464D-09-2.228103251318D+00
   -9.238719940186D-07 8.601387497038D-03 6.331130862236D-06 5.153609567642D+03
    5.544000000000D+05 9.872019290924D-08 2.835587703552D+00-3.352761268616D-08
    9.707771147977D-01 2.611875000000D+02 1.238109948295D+00-7.927473068216D-09
   -3.239420649158D-10 1.000000000000D+00 2.193000000000D+03 0.000000000000D+00
    2.000000000000D+00 0.000000000000D+00-1.257285475731D-08 4.600000000000D+01
    5.472180000000D+05 4.000000000000D+00
15 22  1 22 10  0  0.0-8.965516462922D-05 2.842170943040D-12 0.000000000000D+00
    9.800000000000D+01-7.212500000000D+01 5.216645865668D-09 3.782653218918D-01
   -3.486871719360D-06 1.392717717681D-02 1.067854464054D-05 5.153734506607D+03
    5.544000000000D+05-1.415610313416D-07 5.454909404015D-01 1.266598701477D-07
    9.301360480370D-01 1.585625000000D+02 1.071001698240D+00-8.566428254693D-09
   -2.128660095809D-10 1.000000000000D+00 2.193000000000D+03 0.000000000000D+00
    2.000000000000D+00 0.000000000000D+00-1.071020960808D-08 9.800000000000D+01
    5.472180000000D+05 4.000000000000D+00
28 22  1 22 10  0  0.0 4.168571904302D-04-8.185452315956D-12 0.000000000000D+00
    5.300000000000D+01-2.009375000000D+01 4.409469386385D-09 1.766943240324D+00
   -1.208856701851D-06 1.695173524786D-02 6.072223186493D-06 5.153696729660D+03
    5.544000000000D+05 3.427267074585D-07 2.857675639467D+00-1.452863216400D-07
    9.698920010835D-01 2.635937500000D+02-1.292267062944D+00-7.870684988479D-09
   -3.628722579432D-10 1.000000000000D+00 2.193000000000D+03 0.000000000000D+00
    2.800000000000D+00 6.300000000000D+01-1.117587089539D-08 5.300000000000D+01
    5.472180000000D+05 4.000000000000D+00
13 22  1 22 10  0  0.0 2.493276260793D-04 6.025402399246D-12 0.000000000000D+00
    3.900000000000D+01-4.196875000000D+01 4.246248301857D-09 7.819920058830D-01
   -2.050772309303D-06 5.799353937618D-03 1.157633960247D-05 5.153681890488D+03
    5.544000000000D+05-3.166496753693D-08 8.033063434022D-01 6.146728992462D-08
    9.686310915101D-01 1.603125000000D+02 9.679728412799D-01-7.907472235101D-09
   -1.357199389945D-11 1.000000000000D+00 2.193000000000D+03 0.000000000000D+00
    2.000000000000D+00 0.000000000000D+00-1.117587089539D-08 3.900000000000D+01
    5.472180000000D+05 4.000000000000D+00
17 22  1 22 10  0  0.0 5.648210644722D-04 5.115907697473D-12 0.000000000000D+00
    9.000000000000D+01 2.562500000000D+01 3.816587547619D-09 1.291748850547D+00
    1.249834895134D-06 1.368195423856D-02 1.046992838383D-05 5.153748270035D+03
    5.544000000000D+05-1.080334186554D-07-2.410734427097D+00-3.166496753693D-07
    9.802911820454D-01 1.870312500000D+02-1.505557335592D+00-7.786752920943D-09
   -6.428839215530D-11 1.000000000000D+00 2.193000000000D+03 0.000000000000D+00
    2.800000000000D+00 0.000000000000D+00-1.117587089539D-08 9.000000000000D+01
    5.472180000000D+05 4.000000000000D+00
20 22  1 22 10  0  0.0 5.170581862330D-04-2.273736754432D-13 0.000000000000D+00
    8.200000000000D+01-4.740625000000D+01 5.437726503135D-09 1.466283332129D-01
   -2.395361661911D-06 5.264323903248D-03 3.008171916008D-06 5.153727178574D+03
    5.544000000000D+05 6.332993507385D-08-5.308233185105D-01-4.842877388000D-08
    9.415723428275D-01 3.114375000000D+02 3.109311574096D+00-8.748221541399D-09
   -6.464554988949D-11 1.000000000000D+00 2.193000000000D+03 0.000000000000D+00
    2.000000000000D+00 0.000000000000D+00-8.381903171539D-09 8.200000000000D+01
    5.472180000000D+05 4.000000000000D+00
29 22  1 22 10  0  0.0-4.705134779215D-04-4.888534022029D-12 0.000000000000D+00
    4.800000000000D+01 3.584375000000D+01 3.729798218210D-09 1.436100783751D+00
    1.868233084679D-06 1.783559797332D-03 1.148693263531D-05 5.153766750336D+03
    5.544000000000D+05 6.891787052155D-08-2.397774040845D+00 0.000000000000D+00
    9.822827387389D-01 1.685937500000D+02 2.279545655221D+00-7.644246984999D-09
   -1.225051028293D-10 1.000000000000D+00 2.193000000000D+03 0.000000000000D+00
    2.000000000000D+00 0.000000000000D+00-1.024454832077D-08 4.800000000000D+01
    5.472180000000D+05 4.000000000000D+00
14 22  1 22 10  0  0.0-7.407600060105D-05-5.115907697473D-12 0.000000000000D+00
    6.000000000000D+01-1.384375000000D+01 4.806628786811D-09-2.186964729505D+00
   -7.059425115585D-07 1.341763301753D-03 6.146728992462D-06 5.153641502380D+03
    5.544000000000D+05-1.862645149231D-08 2.804685778375D+00-1.862645149231D-09
    9.541681567280D-01 2.589687500000D+02 3.039510936608D+00-8.230699984549D-09
   -2.796545058755D-10 1.000000000000D+00 2.193000000000D+03 0.000000000000D+00
    2.000000000000D+00 0.000000000000D+00-7.450580596924D-09 8.280000000000D+02
    5.472180000000D+05 4.000000000000D+00
25 22  1 22 10  0  0.0 2.745273523033D-04 5.570655048359D-12 0.000000000000D+00
    5.200000000000D+01-1.778125000000D+01 4.758412492694D-09-2.464764771117D+00
   -9.220093488693D-07 1.040023064706D-02 5.887821316719D-06 5.153715511322D+03
    5.544000000000D+05 5.960464477539D-08 2.759181407232D+00-6.519258022308D-08
    9.581469837649D-01 2.635312500000D+02 9.728110068775D-01-8.077122158844D-09
   -2.342954736326D-10 1.000000000000D+00 2.193000000000D+03 0.000000000000D+00
    2.000000000000D+00 0.000000000000D+00 5.587935447693D-09 5.200000000000D+01
    5.472180000000D+05 4.000000000000D+00
17 22  1 22  9 59 44.0 5.648224614561D-04 5.115907697473D-12 0.000000000000D+00
    0.000000000000D+00 2.562500000000D+01 3.816230389885D-09 1.289414834972D+00
    1.249834895134D-06 1.368195144460D-02 1.046992838383D-05 5.153748273849D+03
    5.543840000000D+05-1.080334186554D-07-2.410734291045D+00-3.166496753693D-07
    9.802911864341D-01 1.870312500000D+02-1.505557073730D+00-7.786752920943D-09
   -6.464554988949D-11 1.000000000000D+00 2.193000000000D+03 0.000000000000D+00
    2.000000000000D+00 0.000000000000D+00-1.117587089539D-08 0.000000000000D+00
    5.481060000000D+05 4.000000000000D+00
 2 22  1 22  9 59 44.0-6.492380052805D-04-9.094947017729D-13 0.000000000000D+00
    1.400000000000D+01 7.793750000000D+01 4.683766526247D-09-7.472451969847D-01
    4.110857844353D-06 2.068883576430D-02 6.895512342453D-06 5.153677305222D+03
    5.543840000000D+05-2.868473529816D-07-1.501571132522D+00 1.415610313416D-07
    9.647999753116D-01 2.588750000000D+02-1.453461721212D+00-8.575000040314D-09
    4.778770483544D-10 1.000000000000D+00 2.193000000000D+03 0.000000000000D+00
    2.000000000000D+00 0.000000000000D+00-1.769512891769D-08 1.400000000000D+01
    5.483160000000D+05 4.000000000000D+00
 5 22  1 22  9 59 44.0-6.876280531287D-05-1.364242052659D-12 0.000000000000D+00
    3.000000000000D+00-6.584375000000D+01 4.959849454781D-09 1.742013594819D+00
   -3.440305590630D-06 5.889518302865D-03 3.863126039505D-06 5.153651126862D+03
    5.543840000000D+05-1.844018697739D-07-4.172552412928D-01-9.685754776001D-08
    9.594493538996D-01 3.070000000000D+02 1.012164326833D+00-8.458923776700D-09
   -1.350056235261D-10 1.000000000000D+00 2.193000000000D+03 0.000000000000D+00
    2.000000000000D+00 0.000000000000D+00-1.117587089539D-08 3.000000000000D+00
    5.486760000000D+05 4.000000000000D+00
11 22  1 22 11 29 36.0-6.821099668741D-05-3.785771696130D-11 0.000000000000D+00
    2.240000000000D+02 7.009375000000D+01 4.649479383765D-09 2.009211525325D+00
    3.468245267868D-06 2.910909242928D-04 5.040317773819D-06 5.153761592865D+03
    5.597760000000D+05-1.117587089539D-08-1.368458079166D+00 3.166496753693D-08
    9.615525999997D-01 2.807812500000D+02 2.876918604945D+00-8.298202796312D-09
    3.260850113210D-10 1.000000000000D+00 2.193000000000D+03 0.000000000000D+00
    2.000000000000D+00 6.300000000000D+01-8.847564458847D-09 7.360000000000D+02
    5.526180000000D+05 4.000000000000D+00
15 22  1 22  9 59 44.0-8.965609595180D-05 2.842170943040D-12 0.000000000000D+00
    2.000000000000D+00-7.212500000000D+01 5.217003023402D-09 3.759318212636D-01
   -3.486871719360D-06 1.392717717681D-02 1.067854464054D-05 5.153734504700D+03
    5.543840000000D+05-1.415610313416D-07 5.454910720641D-01 1.266598701477D-07
    9.301360568145D-01 1.585625000000D+02 1.071001591447D+00-8.566428254693D-09
   -2.128660095809D-10 1.000000000000D+00 2.193000000000D+03 0.000000000000D+00
    2.000000000000D+00 0.000000000000D+00-1.071020960808D-08 2.000000000000D+00
    5.532660000000D+05 4.000000000000D+00
18 22  1 22 10  0  0.0 2.559395506978D-04-7.503331289627D-12 0.000000000000D+00
    1.390000000000D+02 7.834375000000D+01 4.434470427779D-09-7.168391849437D-01
    4.019588232040D-06 2.091463655233D-03 5.740672349930D-06 5.153626251221D+03
    5.544000000000D+05 5.029141902924D-08-1.404588337508D+00-7.450580596924D-09
    9.702353494196D-01 2.715625000000D+02 3.112676348584D+00-8.217842306118D-09
    4.153744448700D-10 1.000000000000D+00 2.193000000000D+03 0.000000000000D+00
    2.000000000000D+00 0.000000000000D+00-8.381903171539D-09 1.390000000000D+02
    5.537160000000D+05 4.000000000000D+00
